COSMOS 2529 (757)       
1 43687U 18086A   26073.86004509  .00000002  00000+0  00000+0 0  9991
2 43687  64.2950 195.7765 0008360 253.0961 106.7938  2.13102093 57275
BEIDOU-3 M17 (C36)      
1 43706U 18093A   26069.52214490  .00000002  00000+0  00000+0 0  9991
2 43706  54.1708 185.6435 0007231 296.1360  71.6984  1.86228516 49703
BEIDOU-3 M18 (C37)      
1 43707U 18093B   26071.52058132 -.00000011  00000+0  00000+0 0  9995
2 43707  54.1720 185.5676 0006110 338.6816  21.2791  1.86226619 49739
GPS BIII-1  (PRN 04)    
1 43873U 18109A   26072.52464372  .00000035  00000+0  00000+0 0  9990
2 43873  55.6205  95.9595 0038059 198.5669 333.4222  2.00557317 53154
BEIDOU-3 IGSO-1 (C38)   
1 44204U 19023A   26073.80570940 -.00000186  00000+0  00000+0 0  9994
2 44204  58.5685  38.6206 0025575 236.0412 306.7281  1.00268038  6269
BEIDOU-2 G8 (C01)       
1 44231U 19027A   26073.95365005 -.00000247  00000+0  00000+0 0  9996
2 44231   1.4178  74.2600 0011484 274.9672 311.1519  1.00273625 25139
COSMOS 2534 (758)       
1 44299U 19030A   26073.31676042  .00000002  00000+0  00000+0 0  9998
2 44299  64.3686 195.8081 0009956 279.3052 158.2774  2.13102462 52903
BEIDOU-3 IGSO-2 (C39)   
1 44337U 19035A   26057.68879618 -.00000176  00000+0  00000+0 0  9995
2 44337  55.2338 159.8353 0038734 206.4752 153.7223  1.00247364 24561
GPS BIII-2  (PRN 18)    
1 44506U 19056A   26073.65497499 -.00000072  00000+0  00000+0 0  9999
2 44506  55.6800 334.9029 0058240 197.9897 330.8097  2.00568616 48178
BEIDOU-3 M24 (C46)      
1 44542U 19061A   26073.20132124 -.00000013  00000+0  00000+0 0  9992
2 44542  54.3984 185.9306 0008488  19.2225 340.7928  1.86229100 44027
BEIDOU-3 M23 (C45)      
1 44543U 19061B   26073.45188475 -.00000012  00000+0  00000+0 0  9999
2 44543  54.3970 185.8909 0004923  10.3958  69.7972  1.86227431 44039
EUTELSAT 5 WEST B (EGN*)
1 44624U 19067A   26073.92409657 -.00000043  00000+0  00000+0 0  9999
2 44624   0.0790 324.4123 0003183  40.6583 135.1272  1.00271714 23490
BEIDOU-3 IGSO-3 (C40)   
1 44709U 19073A   26069.98346678 -.00000143  00000+0  00000+0 0  9995
2 44709  54.9673 281.9576 0040728 188.7089 171.2538  1.00267242 23477
BEIDOU-3 M22 (C44)      
1 44793U 19078A   26073.04051358 -.00000019  00000+0  00000+0 0  9995
2 44793  54.0216 303.1765 0007465  38.1970 321.9120  1.86232320 42878
BEIDOU-3 M21 (C43)      
1 44794U 19078B   26071.03242650 -.00000032  00000+0  00000+0 0  9995
2 44794  53.9966 303.2101 0005425  33.1471 326.9381  1.86227925 42845
COSMOS 2544 (759)       
1 44850U 19088A   26073.70777025  .00000061  00000+0  00000+0 0  9995
2 44850  65.5120  76.8825 0015844 260.0703  99.7905  2.13102159 48700
BEIDOU-3 M19 (C41)      
1 44864U 19090A   26072.08090314  .00000011  00000+0  00000+0 0  9997
2 44864  56.4754  65.9655 0020546 291.6910 247.8851  1.86231740 42441
